[{"OBJECT_NAME":"ONEWEB-0142","OBJECT_ID":"2020-100AG","EPOCH":"2026-03-20T06:19:33.903840","MEAN_MOTION":13.12443803,"ECCENTRICITY":0.00019826,"INCLINATION":87.9013,"RA_OF_ASC_NODE":8.3221,"ARG_OF_PERICENTER":67.0245,"MEAN_ANOMALY":293.1093,"EPHEMERIS_TYPE":0,"CLASSIFICATION_TYPE":"U","NORAD_CAT_ID":47288,"ELEMENT_SET_NO":999,"REV_AT_EPOCH":25300,"BSTAR":0.00071319197,"MEAN_MOTION_DOT":2.69e-6,"MEAN_MOTION_DDOT":0},{"OBJECT_NAME":"ONEWEB-0143","OBJECT_ID":"2020-100AH","EPOCH":"2026-03-20T06:34:00.144192","MEAN_MOTION":13.1244257,"ECCENTRICITY":0.00017922,"INCLINATION":87.9013,"RA_OF_ASC_NODE":8.3164,"ARG_OF_PERICENTER":77.3749,"MEAN_ANOMALY":282.758,"EPHEMERIS_TYPE":0,"CLASSIFICATION_TYPE":"U","NORAD_CAT_ID":47289,"ELEMENT_SET_NO":999,"REV_AT_EPOCH":25298,"BSTAR":-0.00034472342,"MEAN_MOTION_DOT":-1.11e-6,"MEAN_MOTION_DDOT":0},{"OBJECT_NAME":"ONEWEB-0144","OBJECT_ID":"2020-100AJ","EPOCH":"2026-03-20T05:52:32.447136","MEAN_MOTION":13.12442434,"ECCENTRICITY":0.00021582,"INCLINATION":87.9017,"RA_OF_ASC_NODE":8.292,"ARG_OF_PERICENTER":75.3369,"MEAN_ANOMALY":284.7999,"EPHEMERIS_TYPE":0,"CLASSIFICATION_TYPE":"U","NORAD_CAT_ID":47290,"ELEMENT_SET_NO":999,"REV_AT_EPOCH":25290,"BSTAR":0.0012413553,"MEAN_MOTION_DOT":4.59e-6,"MEAN_MOTION_DDOT":0},{"OBJECT_NAME":"ONEWEB-0145","OBJECT_ID":"2020-100AK","EPOCH":"2026-03-20T07:00:50.914944","MEAN_MOTION":13.12443199,"ECCENTRICITY":0.00019122,"INCLINATION":87.9007,"RA_OF_ASC_NODE":8.3201,"ARG_OF_PERICENTER":76.9496,"MEAN_ANOMALY":283.1846,"EPHEMERIS_TYPE":0,"CLASSIFICATION_TYPE":"U","NORAD_CAT_ID":47291,"ELEMENT_SET_NO":999,"REV_AT_EPOCH":25310,"BSTAR":-0.0009322366,"MEAN_MOTION_DOT":-3.23e-6,"MEAN_MOTION_DDOT":0},{"OBJECT_NAME":"ONEWEB-0146","OBJECT_ID":"2020-100AL","EPOCH":"2026-03-20T06:55:57.005472","MEAN_MOTION":13.12442413,"ECCENTRICITY":0.00015991,"INCLINATION":87.9015,"RA_OF_ASC_NODE":8.3062,"ARG_OF_PERICENTER":87.6246,"MEAN_ANOMALY":272.5066,"EPHEMERIS_TYPE":0,"CLASSIFICATION_TYPE":"U","NORAD_CAT_ID":47292,"ELEMENT_SET_NO":999,"REV_AT_EPOCH":25301,"BSTAR":-0.0010480866,"MEAN_MOTION_DOT":-3.64e-6,"MEAN_MOTION_DDOT":0},{"OBJECT_NAME":"ONEWEB-0147","OBJECT_ID":"2020-100AM","EPOCH":"2026-03-20T06:07:10.872480","MEAN_MOTION":13.12443384,"ECCENTRICITY":0.00020499,"INCLINATION":87.9014,"RA_OF_ASC_NODE":8.2934,"ARG_OF_PERICENTER":83.538,"MEAN_ANOMALY":276.5982,"EPHEMERIS_TYPE":0,"CLASSIFICATION_TYPE":"U","NORAD_CAT_ID":47293,"ELEMENT_SET_NO":999,"REV_AT_EPOCH":25290,"BSTAR":0.0011250102,"MEAN_MOTION_DOT":4.17e-6,"MEAN_MOTION_DDOT":0},{"OBJECT_NAME":"ONEWEB-0115","OBJECT_ID":"2021-025A","EPOCH":"2026-03-20T04:48:23.953536","MEAN_MOTION":13.13470962,"ECCENTRICITY":0.00016918,"INCLINATION":87.9038,"RA_OF_ASC_NODE":337.9274,"ARG_OF_PERICENTER":80.4362,"MEAN_ANOMALY":279.6958,"EPHEMERIS_TYPE":0,"CLASSIFICATION_TYPE":"U","NORAD_CAT_ID":48042,"ELEMENT_SET_NO":999,"REV_AT_EPOCH":24191,"BSTAR":-0.00076559004,"MEAN_MOTION_DOT":-2.67e-6,"MEAN_MOTION_DDOT":0},{"OBJECT_NAME":"ONEWEB-0152","OBJECT_ID":"2021-025B","EPOCH":"2026-03-20T05:07:54.143904","MEAN_MOTION":13.13471206,"ECCENTRICITY":0.00016712,"INCLINATION":87.9029,"RA_OF_ASC_NODE":337.9254,"ARG_OF_PERICENTER":82.9742,"MEAN_ANOMALY":277.1577,"EPHEMERIS_TYPE":0,"CLASSIFICATION_TYPE":"U","NORAD_CAT_ID":48043,"ELEMENT_SET_NO":999,"REV_AT_EPOCH":24187,"BSTAR":-0.00055299632,"MEAN_MOTION_DOT":-1.89e-6,"MEAN_MOTION_DDOT":0},{"OBJECT_NAME":"ONEWEB-0153","OBJECT_ID":"2021-025C","EPOCH":"2026-03-20T06:25:54.719616","MEAN_MOTION":13.13470624,"ECCENTRICITY":0.00017637,"INCLINATION":87.9025,"RA_OF_ASC_NODE":337.9198,"ARG_OF_PERICENTER":76.221,"MEAN_ANOMALY":283.9115,"EPHEMERIS_TYPE":0,"CLASSIFICATION_TYPE":"U","NORAD_CAT_ID":48044,"ELEMENT_SET_NO":999,"REV_AT_EPOCH":24187,"BSTAR":-0.00036623188,"MEAN_MOTION_DOT":-1.21e-6,"MEAN_MOTION_DDOT":0},{"OBJECT_NAME":"ONEWEB-0154","OBJECT_ID":"2021-025D","EPOCH":"2026-03-20T06:21:01.744128","MEAN_MOTION":13.13468378,"ECCENTRICITY":0.00017941,"INCLINATION":87.9027,"RA_OF_ASC_NODE":337.918,"ARG_OF_PERICENTER":81.4653,"MEAN_ANOMALY":278.668,"EPHEMERIS_TYPE":0,"CLASSIFICATION_TYPE":"U","NORAD_CAT_ID":48045,"ELEMENT_SET_NO":999,"REV_AT_EPOCH":24183,"BSTAR":-0.00017279959,"MEAN_MOTION_DOT":-5.0e-7,"MEAN_MOTION_DDOT":0},{"OBJECT_NAME":"ONEWEB-0116","OBJECT_ID":"2021-025E","EPOCH":"2026-03-20T05:27:24.558048","MEAN_MOTION":13.13471416,"ECCENTRICITY":0.00016852,"INCLINATION":87.9034,"RA_OF_ASC_NODE":337.9143,"ARG_OF_PERICENTER":83.483,"MEAN_ANOMALY":276.6491,"EPHEMERIS_TYPE":0,"CLASSIFICATION_TYPE":"U","NORAD_CAT_ID":48046,"ELEMENT_SET_NO":999,"REV_AT_EPOCH":24197,"BSTAR":0.00025559593,"MEAN_MOTION_DOT":1.06e-6,"MEAN_MOTION_DDOT":0},{"OBJECT_NAME":"ONEWEB-0150","OBJECT_ID":"2021-025F","EPOCH":"2026-03-20T06:42:58.211424","MEAN_MOTION":13.13471101,"ECCENTRICITY":0.00016238,"INCLINATION":87.9037,"RA_OF_ASC_NODE":337.9007,"ARG_OF_PERICENTER":73.4667,"MEAN_ANOMALY":286.6641,"EPHEMERIS_TYPE":0,"CLASSIFICATION_TYPE":"U","NORAD_CAT_ID":48047,"ELEMENT_SET_NO":999,"REV_AT_EPOCH":24187,"BSTAR":-0.00084115728,"MEAN_MOTION_DOT":-2.94e-6,"MEAN_MOTION_DDOT":0},{"OBJECT_NAME":"ONEWEB-0107","OBJECT_ID":"2021-025G","EPOCH":"2026-03-20T06:45:24.953184","MEAN_MOTION":13.13470537,"ECCENTRICITY":0.00019125,"INCLINATION":87.9036,"RA_OF_ASC_NODE":337.896,"ARG_OF_PERICENTER":72.2209,"MEAN_ANOMALY":287.9129,"EPHEMERIS_TYPE":0,"CLASSIFICATION_TYPE":"U","NORAD_CAT_ID":48048,"ELEMENT_SET_NO":999,"REV_AT_EPOCH":24185,"BSTAR":-0.00074618892,"MEAN_MOTION_DOT":-2.6e-6,"MEAN_MOTION_DDOT":0},{"OBJECT_NAME":"ONEWEB-0101","OBJECT_ID":"2021-025H","EPOCH":"2026-03-20T04:02:06.081216","MEAN_MOTION":13.13470696,"ECCENTRICITY":0.00018904,"INCLINATION":87.9025,"RA_OF_ASC_NODE":337.9438,"ARG_OF_PERICENTER":78.9423,"MEAN_ANOMALY":281.1919,"EPHEMERIS_TYPE":0,"CLASSIFICATION_TYPE":"U","NORAD_CAT_ID":48049,"ELEMENT_SET_NO":999,"REV_AT_EPOCH":24181,"BSTAR":0.00090761121,"MEAN_MOTION_DOT":3.44e-6,"MEAN_MOTION_DDOT":0},{"OBJECT_NAME":"ONEWEB-0113","OBJECT_ID":"2021-025J","EPOCH":"2026-03-20T03:31:36.746112","MEAN_MOTION":13.13951335,"ECCENTRICITY":0.0001533,"INCLINATION":87.9034,"RA_OF_ASC_NODE":337.8661,"ARG_OF_PERICENTER":90.1378,"MEAN_ANOMALY":269.9927,"EPHEMERIS_TYPE":0,"CLASSIFICATION_TYPE":"U","NORAD_CAT_ID":48050,"ELEMENT_SET_NO":999,"REV_AT_EPOCH":24191,"BSTAR":0.00018873618,"MEAN_MOTION_DOT":8.2e-7,"MEAN_MOTION_DDOT":0},{"OBJECT_NAME":"ONEWEB-0112","OBJECT_ID":"2021-025K","EPOCH":"2026-03-20T05:03:01.194336","MEAN_MOTION":13.13471809,"ECCENTRICITY":0.00019862,"INCLINATION":87.9037,"RA_OF_ASC_NODE":337.908,"ARG_OF_PERICENTER":78.8129,"MEAN_ANOMALY":281.3223,"EPHEMERIS_TYPE":0,"CLASSIFICATION_TYPE":"U","NORAD_CAT_ID":48051,"ELEMENT_SET_NO":999,"REV_AT_EPOCH":24191,"BSTAR":-0.00070086803,"MEAN_MOTION_DOT":-2.43e-6,"MEAN_MOTION_DDOT":0}]
