ONEWEB-0142             
1 47288U 20100AG  26079.26358685  .00000269  00000+0  71319-3 0  9999
2 47288  87.9013   8.3221 0001982  67.0245 293.1093 13.12443803253005
ONEWEB-0143             
1 47289U 20100AH  26079.27361278 -.00000111  00000+0 -34472-3 0  9990
2 47289  87.9013   8.3164 0001792  77.3749 282.7580 13.12442570252985
ONEWEB-0144             
1 47290U 20100AJ  26079.24481999  .00000459  00000+0  12414-2 0  9996
2 47290  87.9017   8.2920 0002158  75.3369 284.7999 13.12442434252900
ONEWEB-0145             
1 47291U 20100AK  26079.29225596 -.00000323  00000+0 -93224-3 0  9992
2 47291  87.9007   8.3201 0001912  76.9496 283.1846 13.12443199253104
ONEWEB-0146             
1 47292U 20100AL  26079.28885423 -.00000364  00000+0 -10481-2 0  9991
2 47292  87.9015   8.3062 0001599  87.6246 272.5066 13.12442413253016
ONEWEB-0147             
1 47293U 20100AM  26079.25498695  .00000417  00000+0  11250-2 0  9992
2 47293  87.9014   8.2934 0002049  83.5380 276.5982 13.12443384252904
ONEWEB-0115             
1 48042U 21025A   26079.20027724 -.00000267  00000+0 -76559-3 0  9997
2 48042  87.9038 337.9274 0001691  80.4362 279.6958 13.13470962241919
ONEWEB-0152             
1 48043U 21025B   26079.21382111 -.00000189  00000+0 -55300-3 0  9997
2 48043  87.9029 337.9254 0001671  82.9742 277.1577 13.13471206241872
ONEWEB-0153             
1 48044U 21025C   26079.26799444 -.00000121  00000+0 -36623-3 0  9997
2 48044  87.9025 337.9198 0001763  76.2210 283.9115 13.13470624241870
ONEWEB-0154             
1 48045U 21025D   26079.26460352 -.00000050  00000+0 -17280-3 0  9990
2 48045  87.9027 337.9180 0001794  81.4653 278.6680 13.13468378241834
ONEWEB-0116             
1 48046U 21025E   26079.22736757  .00000106  00000+0  25560-3 0  9992
2 48046  87.9034 337.9143 0001685  83.4830 276.6491 13.13471416241970
ONEWEB-0150             
1 48047U 21025F   26079.27984041 -.00000294  00000+0 -84116-3 0  9991
2 48047  87.9037 337.9007 0001623  73.4667 286.6641 13.13471101241870
ONEWEB-0107             
1 48048U 21025G   26079.28153881 -.00000260  00000+0 -74619-3 0  9993
2 48048  87.9036 337.8960 0001912  72.2209 287.9129 13.13470537241852
ONEWEB-0101             
1 48049U 21025H   26079.16812594  .00000344  00000+0  90761-3 0  9991
2 48049  87.9025 337.9438 0001890  78.9423 281.1919 13.13470696241813
ONEWEB-0113             
1 48050U 21025J   26079.14695308  .00000082  00000+0  18874-3 0  9997
2 48050  87.9034 337.8661 0001533  90.1378 269.9927 13.13951335241919
ONEWEB-0112             
1 48051U 21025K   26079.21043049 -.00000243  00000+0 -70087-3 0  9990
2 48051  87.9037 337.9080 0001986  78.8129 281.3223 13.13471809241918
